ASTRA 1KR               
1 29055U 06012A   26127.69197801  .00000127  00000+0  00000+0 0  9997
2 29055   0.3686  82.8547 0003630 325.1939  85.5928  1.00272816 45298
GALAXY 16 (G-16)        
1 29236U 06023A   26127.59730184 -.00000119  00000+0  00000+0 0  9998
2 29236   0.0285 148.7027 0002850 259.2512 293.5260  1.00270878 72569
EUTELSAT 33F            
1 29270U 06032A   26127.69475134  .00000164  00000+0  00000+0 0  9997
2 29270   1.5567  82.6640 0003690 325.3877 100.6926  1.00273307 46901
JCSAT-3A                
1 29272U 06033A   26127.71354426 -.00000337  00000+0  00000+0 0  9996
2 29272   0.0355  80.9407 0002547 342.9377 186.5640  1.00271754 47332
SYRACUSE 3B             
1 29273U 06033B   26127.69085132 -.00000119  00000+0  00000+0 0  9997
2 29273   2.8011  80.6579 0004233 298.8983 108.0079  0.98628842 72260
KOREASAT 5 (MUGUNGWHA 5)
1 29349U 06034A   26127.74211603 -.00000349  00000+0  00000+0 0  9997
2 29349   1.6808  83.4557 0002104 359.8220 162.5226  1.00269908 40913
DIRECTV 9S              
1 29494U 06043A   26127.59686852 -.00000105  00000+0  00000+0 0  9993
2 29494   2.3161  81.3674 0004690 342.1258 275.6371  1.00272319 50973
OPTUS D1                
1 29495U 06043B   26127.69142014 -.00000174  00000+0  00000+0 0  9998
2 29495   2.9307  80.1322 0004028 327.4683 218.8556  1.00272115 71715
BADR-4                  
1 29526U 06051A   26127.69345133  .00000154  00000+0  00000+0 0  9996
2 29526   1.9003  81.5271 0005391 309.9470 110.0899  1.00268591 50862
WILDBLUE-1              
1 29643U 06054A   26127.59487516 -.00000041  00000+0  00000+0 0  9996
2 29643   2.6984  80.9723 0001768 335.7521 271.6811  1.00271956 53388
SKYNET 5A               
1 30794U 07007B   26127.70713089 -.00000262  00000+0  00000+0 0  9999
2 30794   5.1999  74.2190 0004187 343.6037 157.4987  1.00268923 70297
ANIK F3                 
1 31102U 07009A   26127.66467788  .00000007  00000+0  00000+0 0  9998
2 31102   1.0923  84.2871 0002871 323.4104 298.3928  1.00271997 46152
ASTRA 1L                
1 31306U 07016A   26127.68339796 -.00000176  00000+0  00000+0 0  9999
2 31306   1.2169  81.8464 0005168 340.4046  24.8284  1.00272317 44588
GALAXY 17 (G-17)        
1 31307U 07016B   26127.60007520 -.00000198  00000+0  00000+0 0  9993
2 31307   2.8695  80.3907 0004719 342.7323 293.3586  1.00271740 69393
INTELSAT 11 (IS-11)     
1 32253U 07044B   26127.39214977 -.00000181  00000+0  00000+0 0  9999
2 32253   3.4594  79.1451 0000328 233.1179 359.3809  0.99051115 68044
WGS F1 (USA 195)        
1 32258U 07046A   26127.67975795 -.00000259  00000+0  00000+0 0  9995
2 32258   0.0661  87.8489 0000607 303.6971  36.2245  1.00269603 51927
SKYNET 5B               
1 32294U 07056B   26127.62182861  .00000149  00000+0  00000+0 0  9992
2 32294   5.1513  73.9729 0003850 326.4788  73.9669  1.00274369 67799
ASTRA 4A                
1 32299U 07057A   26127.68920465  .00000040  00000+0  00000+0 0  9994
2 32299   0.0441  73.5433 0002480 335.0392  69.8774  1.00271122 51249
HORIZONS-2              
1 32388U 07063B   26127.53094780 -.00000245  00000+0  00000+0 0  9994
2 32388   2.4973  81.1045 0003874 332.5356 289.0821  1.00274253 67400
THURAYA-3               
1 32404U 08001A   26127.70773757 -.00000294  00000+0  00000+0 0  9997
2 32404   5.9223  35.7311 0002329  11.5854 171.5226  1.00273259 67080
THOR 5                  
1 32487U 08006A   26127.68807799 -.00000001  00000+0  00000+0 0  9990
2 32487   0.0169 243.9712 0002820 174.4185  54.1036  1.00272323 66913
AMC-14                  
1 32708U 08011A   26126.77475597  .00000045  00000+0  00000+0 0  9995
2 32708  23.9575  21.0206 0048088   4.3930 172.1449  1.00346471 67750
DIRECTV 11              
1 32729U 08013A   26127.59730184 -.00000118  00000+0  00000+0 0  9999
2 32729   0.0195  46.0164 0000352 338.0919 317.1897  1.00272746 45187
ICO G1                  
1 32763U 08016A   26127.41502737 -.00000164  00000+0  00000+0 0  9993
2 32763   5.5268  36.2403 0002285 354.0367 251.5319  1.00272622 66136
VINASAT-1               
1 32767U 08018A   26127.64301111 -.00000321  00000+0  00000+0 0  9992
2 32767   0.0105 305.0916 0002083 132.8445 150.9818  1.00269339 66183
STAR ONE C2             
1 32768U 08018B   26127.45682198 -.00000269  00000+0  00000+0 0  9990
2 32768   1.1368  82.7837 0003169 334.0660 267.9160  1.00272590 66248
AMOS-3                  
1 32794U 08022A   26127.69033132  .00000106  00000+0  00000+0 0  9997
2 32794   0.3502  86.6815 0000799  44.0932 353.7955  1.00457163 81933
GALAXY 18 (G-18)        
1 32951U 08024A   26127.82514115  .00000033  00000+0  00000+0 0  9993
2 32951   0.0076 282.0514 0003187 129.6219 348.0402  1.00272223 45443
ZHONGXING-9             
1 33051U 08028A   26127.72733487 -.00000241  00000+0  00000+0 0  9995
2 33051   0.6651  85.8014 0006035 299.3614 194.6351  1.00270190 65635
SKYNET 5C               
1 33055U 08030A   26127.68469796 -.00000131  00000+0  00000+0 0  9994
2 33055   3.6854  77.5030 0003998 335.5033  41.2443  1.00272320 65553
TURKSAT 3A              
1 33056U 08030B   26127.69657134  .00000154  00000+0  00000+0 0  9995
2 33056   0.0679  83.2939 0005195 322.5143 112.5021  1.00271396 51956
INTELSAT 25 (IS-25)     
1 33153U 08034A   26127.53216116 -.00000181  00000+0  00000+0 0  9992
2 33153   2.6027  80.7784 0002002 325.8721 302.9508  0.99464709 65286
ECHOSTAR 11             
1 33207U 08035A   26127.59513516 -.00000050  00000+0  00000+0 0  9998
2 33207   0.8997  84.5801 0002705 309.7112 295.6189  1.00272408 50800
SUPERBIRD-C2            
1 33274U 08038A   26127.71510426 -.00000298  00000+0  00000+0 0  9990
2 33274   2.2566  81.7443 0005330   9.1523 168.1096  1.00271300105326
INMARSAT 4-F3           
1 33278U 08039A   26127.59747519 -.00000132  00000+0  00000+0 0  9993
2 33278   4.2604  31.4681 0003022  21.6086 289.4532  1.00270461 46132
NIMIQ 4                 
1 33373U 08044A   26127.60068186 -.00000213  00000+0  00000+0 0  9993
2 33373   0.0129 307.0105 0002168  84.8408 327.8482  1.00271924 64570
GALAXY 19 (G-19)        
1 33376U 08045A   26127.59764852 -.00000132  00000+0  00000+0 0  9998
2 33376   0.0042  54.0679 0002899 357.4547 292.0831  1.00271211 64497
ASTRA 1M                
1 33436U 08057A   26127.69206468  .00000128  00000+0  00000+0 0  9997
2 33436   0.1911  80.8273 0004444   4.3516  48.8656  1.00271321 45335
EUTELSAT HOTBIRD 13C    
1 33459U 08065A   26127.39301645 -.00000274  00000+0  00000+0 0  9994
2 33459   2.8457  79.6520 0004447 332.2214 264.5820  1.00271140 46932
EXPRESS-AM44            
1 33595U 09007A   26127.79571619 -.00000080  00000+0  00000+0 0  9991
2 33595   3.3602  78.8690 0004584 329.8223  92.4219  1.00272137 51881
NSS-9                   
1 33749U 09008A   26127.65315117  .00000080  00000+0  00000+0 0  9996
2 33749   1.1568  82.9972 0002383 315.1878 245.5199  1.00272290 63114
TELSTAR 11N             
1 34111U 09009A   26127.68079795 -.00000243  00000+0  00000+0 0  9995
2 34111   0.0183 281.2434 0002610 118.1422  33.6785  1.00270688 45830
WGS F2 (USA 204)        
1 34713U 09017A   26127.62910865  .00000075  00000+0  00000+0 0  9990
2 34713   0.0149 290.4640 0000953 289.3763 289.6417  1.00273597 45217
SES-7 (PROTOSTAR 2)     
1 34941U 09027A   26127.74211603 -.00000337  00000+0  00000+0 0  9993
2 34941   0.0753  81.1213 0000091 257.2761 262.6016  1.00270087 62224
MEASAT-3A               
1 35362U 09032A   26127.64855780 -.00000103  00000+0  00000+0 0  9997
2 35362   0.0269 354.8547 0003818  52.3242 211.8007  1.00272176  7622
GOES 14                 
1 35491U 09033A   26127.64951116 -.00000093  00000+0  00000+0 0  9999
2 35491   1.5855  83.5052 0001986 332.9876 207.3917  1.00118276  6183
FM-5                    
1 35493U 09034A   26127.25280800 -.00000193  00000+0  00000+0 0  9995
2 35493   0.0136 276.2776 0000191 323.9195 349.7683  1.00271215 46230
TERRESTAR-1             
1 35496U 09035A   26127.62441884 -.00000048  00000+0  00000+0 0  9990
2 35496   5.1560  48.8131 0002693 354.1163 296.2923  1.00271594 61722
ASIASAT 5               
1 35696U 09042A   26127.80372418 -.00000300  00000+0  00000+0 0  9997
2 35696   0.0064 332.3038 0001616  58.0634 225.1299  1.00272428 61309
JCSAT-12 (JCSAT-RA)     
1 35755U 09044A   26127.71432426 -.00000320  00000+0  00000+0 0  9993
2 35755   0.0184 308.5031 0000532  71.6112 234.6702  1.00273832 61207
OPTUS D3                
1 35756U 09044B   26127.63209390 -.00000139  00000+0  00000+0 0  9995
2 35756   0.8540 270.1769 0003386 138.4340 200.5618  1.00270959 61158
NIMIQ 5                 
1 35873U 09050A   26127.42261078 -.00000249  00000+0  00000+0 0  9992
2 35873   0.0386  89.8128 0003262 331.4795 243.4221  1.00270763 60938
AMAZONAS 2              
1 35942U 09054A   26127.66950102 -.00000274  00000+0  00000+0 0  9990
2 35942   1.7093  83.5368 0003560 324.8999 357.3018  1.00269681 60776
COMSATBW-1              
1 35943U 09054B   26127.55807457  .00000031  00000+0  00000+0 0  9993
2 35943   0.0155  29.7820 0003708  27.4850  72.1201  1.00276701 60901
NSS-12                  
1 36032U 09058A   26127.85531141  .00000079  00000+0  00000+0 0  9996
2 36032   0.0887  71.4636 0004959 313.6318 205.5288  1.00273248 60517
THOR 6                  
1 36033U 09058B   26127.68807799 -.00000002  00000+0  00000+0 0  9990
2 36033   0.0369  94.9461 0002250 335.8066  41.6461  1.00271574 60609
INTELSAT 14 (IS-14)     
1 36097U 09064A   26127.88400088 -.00000266  00000+0  00000+0 0  9991
2 36097   0.0134 283.3582 0002634 129.5541  86.0696  1.00272793 60202
EUTELSAT 36B            
1 36101U 09065A   26127.86641897  .00000120  00000+0  00000+0 0  9999
2 36101   0.3889  80.2829 0005989 327.1557 180.6805  1.00270308 60309
INTELSAT 15 (IS-15)     
1 36106U 09067A   26127.72733486 -.00000178  00000+0  00000+0 0  9991
2 36106   0.0115 315.7110 0002385  84.8011 172.0555  1.00273620 40823
